COSMOS 2489 (RODNIK-S 8)
1 39484U 13076B   26065.86146450 -.00000025  00000+0 -24872-3 0  9992
2 39484  82.4837 233.7879 0020474 319.9136  40.0432 12.42876339553236
COSMOS 2490 (RODNIK-S 9)
1 39485U 13076C   26065.83317898 -.00000123  00000+0 -96094-3 0  9990
2 39485  82.4786 231.9166 0020767 336.3857  23.6267 12.42873651553166
AIST-1 (RS41)           
1 39492U 13078C   26065.81824522  .00001905  00000+0  16842-3 0  9995
2 39492  82.4195  10.0215 0015113 260.6709  99.2804 14.95747714659942
KAZEOSAT 1              
1 39731U 14024A   26065.81660669  .00000208  00000+0  76315-4 0  9990
2 39731  98.3288 140.7796 0001058  82.3779 277.7531 14.42033532623805
COSMOS 2496 (RODNIK-S *)
1 39761U 14028A   26065.79075440  .00000023  00000+0  96911-4 0  9990
2 39761  82.4504 172.8550 0018680 302.7753  57.1527 12.42873936534799
COSMOS 2497 (RODNIK-S *)
1 39762U 14028B   26065.84767334 -.00000040  00000+0 -35618-3 0  9994
2 39762  82.4552 174.4689 0019237 297.4576  62.4547 12.42874324534801
COSMOS 2498 (RODNIK-S *)
1 39763U 14028C   26065.83254437 -.00000137  00000+0 -10539-2 0  9990
2 39763  82.4513 173.0107 0019939 296.9133  62.9909 12.42976035534833
COSMOS 2499 (RS47)      
1 39765U 14028E   26065.80221432  .00000013  00000+0  14720-4 0  9997
2 39765  82.4526 321.5321 0230520 241.9454 115.8167 12.82900757551895
HODOYOSHI-4             
1 40011U 14033B   26065.81991226  .00002994  00000+0  33180-3 0  9995
2 40011  97.5446 255.5916 0022270 286.3928  73.4841 14.87834144633583
UNISAT-6                
1 40012U 14033C   26065.64661593  .00004967  00000+0  54168-3 0  9999
2 40012  97.7722 220.2879 0046309  47.7716 312.7415 14.87611173630918
DEIMOS-2                
1 40013U 14033D   26065.81462168  .00003330  00000+0  32232-3 0  9997
2 40013  97.5982 303.8308 0001360  58.7847 301.3506 14.93397611622444
BUGSAT-1 (TITA)         
1 40014U 14033E   26065.86340142  .00005892  00000+0  32122-3 0  9993
2 40014  98.0430 152.5272 0029053 167.9197 192.2736 15.14447796640343
SAUDISAT 4              
1 40016U 14033G   26065.65447111  .00001195  00000+0  16430-3 0  9992
2 40016  97.7406 215.4349 0045911  48.3897 312.1234 14.79383543630915
APRIZESAT 9             
1 40018U 14033J   26065.37430920  .00001495  00000+0  22692-3 0  9993
2 40018  97.8875 201.1944 0066610 169.7785 190.4796 14.74064970628411
BRITE-CA1 (TORONTO)     
1 40020U 14033L   26065.77492995  .00001906  00000+0  29466-3 0  9993
2 40020  97.9562 196.7031 0077781 244.3708 114.9449 14.72453630627148
DUCHIFAT-1              
1 40021U 14033M   26065.08356619  .00055499  00000+0  10109-2 0  9999
2 40021  98.0634 111.0868 0006460  95.0854 265.1132 15.49284424639710
